SL-3 R/B                
1 13403U 82079B   26003.48306057  .00011214  00000+0  45872-3 0  9998
2 13403  81.1476 270.0275 0026278  29.2070 331.0625 15.23900300367760
SL-14 R/B               
1 13553U 82092B   26003.30819755  .00000934  00000+0  10228-3 0  9998
2 13553  82.5668 202.5396 0020938 154.3651  18.4746 14.86581446319211
SL-3 R/B                
1 13819U 83010B   26003.48573707  .00024308  00000+0  52639-3 0  9990
2 13819  81.1046  82.0632 0016267 273.4301  86.5082 15.44165005347876
SL-3 R/B                
1 14208U 83075B   26003.47581806  .00018849  00000+0  52285-3 0  9992
2 14208  97.6102   5.6965 0024502 101.8606 258.5388 15.36669001320133
COSMOS 1536             
1 14699U 84013A   26003.49293094  .00013054  00000+0  55437-3 0  9995
2 14699  82.5445 172.5865 0015108 147.6719 212.5447 15.22848466262699
SL-14 R/B               
1 14820U 84027B   26003.30688119  .00000957  00000+0  10677-3 0  9997
2 14820  82.5429 306.3318 0017701 185.1714 174.9322 14.85902978237928
SL-8 R/B                
1 15483U 85006B   26003.47005421  .00000571  00000+0  19824-3 0  9993
2 15483  74.0459  21.1525 0019578 309.3552 158.5943 14.37738266144657
SL-12 R/B(2)            
1 15772U 85042D   26003.07088943  .00000138  00000+0  83668-4 0  9997
2 15772  71.1067 226.3569 0037001 230.0749 241.1939 14.21959109105067
SL-14 R/B               
1 15945U 85069B   26003.51352175  .00000941  00000+0  10372-3 0  9991
2 15945  82.5270  86.2336 0019954  51.4172 308.8828 14.86354283163153
SL-16 R/B               
1 16182U 85097B   26003.47976807  .00000219  00000+0  13377-3 0  9991
2 16182  71.0031 277.8357 0008005 338.7117 194.4217 14.16587636 77991
SL-14 R/B               
1 16496U 86006B   26003.37245189  .00001196  00000+0  12438-3 0  9993
2 16496  82.5280 321.1969 0077889 128.4612 232.3629 14.86705671139507
COSMOS 1743             
1 16719U 86034A   26003.43584550  .00049764  00000+0  77603-3 0  9995
2 16719  82.5354 142.0347 0005017 167.9849 192.1524 15.53630011170109
