CCSDS_OMM_VERS = 2.0
CREATION_DATE  = 
ORIGINATOR     = 

OBJECT_NAME    = SL-3 R/B
OBJECT_ID      = 1982-079B
CENTER_NAME    = EARTH
REF_FRAME      = TEME
TIME_SYSTEM    = UTC
MEAN_ELEMENT_THEORY = SGP/SGP4

EPOCH          = 2026-01-03T11:35:36.433248
MEAN_MOTION    = 15.23900300
ECCENTRICITY   = .0026278
INCLINATION    = 81.1476
RA_OF_ASC_NODE = 270.0275
ARG_OF_PERICENTER = 29.2070
MEAN_ANOMALY   = 331.0625

EPHEMERIS_TYPE = 0
CLASSIFICATION_TYPE = U
NORAD_CAT_ID   = 13403
ELEMENT_SET_NO = 999
REV_AT_EPOCH   = 36776
BSTAR          = .45872E-3
MEAN_MOTION_DOT = .11214E-3
MEAN_MOTION_DDOT = 0

CCSDS_OMM_VERS = 2.0
CREATION_DATE  = 
ORIGINATOR     = 

OBJECT_NAME    = SL-14 R/B
OBJECT_ID      = 1982-092B
CENTER_NAME    = EARTH
REF_FRAME      = TEME
TIME_SYSTEM    = UTC
MEAN_ELEMENT_THEORY = SGP/SGP4

EPOCH          = 2026-01-03T07:23:48.268320
MEAN_MOTION    = 14.86581446
ECCENTRICITY   = .0020938
INCLINATION    = 82.5668
RA_OF_ASC_NODE = 202.5396
ARG_OF_PERICENTER = 154.3651
MEAN_ANOMALY   = 18.4746

EPHEMERIS_TYPE = 0
CLASSIFICATION_TYPE = U
NORAD_CAT_ID   = 13553
ELEMENT_SET_NO = 999
REV_AT_EPOCH   = 31921
BSTAR          = .10228E-3
MEAN_MOTION_DOT = .934E-5
MEAN_MOTION_DDOT = 0

CCSDS_OMM_VERS = 2.0
CREATION_DATE  = 
ORIGINATOR     = 

OBJECT_NAME    = SL-3 R/B
OBJECT_ID      = 1983-010B
CENTER_NAME    = EARTH
REF_FRAME      = TEME
TIME_SYSTEM    = UTC
MEAN_ELEMENT_THEORY = SGP/SGP4

EPOCH          = 2026-01-03T11:39:27.682848
MEAN_MOTION    = 15.44165005
ECCENTRICITY   = .0016267
INCLINATION    = 81.1046
RA_OF_ASC_NODE = 82.0632
ARG_OF_PERICENTER = 273.4301
MEAN_ANOMALY   = 86.5082

EPHEMERIS_TYPE = 0
CLASSIFICATION_TYPE = U
NORAD_CAT_ID   = 13819
ELEMENT_SET_NO = 999
REV_AT_EPOCH   = 34787
BSTAR          = .52639E-3
MEAN_MOTION_DOT = .24308E-3
MEAN_MOTION_DDOT = 0

CCSDS_OMM_VERS = 2.0
CREATION_DATE  = 
ORIGINATOR     = 

OBJECT_NAME    = SL-3 R/B
OBJECT_ID      = 1983-075B
CENTER_NAME    = EARTH
REF_FRAME      = TEME
TIME_SYSTEM    = UTC
MEAN_ELEMENT_THEORY = SGP/SGP4

EPOCH          = 2026-01-03T11:25:10.680384
MEAN_MOTION    = 15.36669001
ECCENTRICITY   = .0024502
INCLINATION    = 97.6102
RA_OF_ASC_NODE = 5.6965
ARG_OF_PERICENTER = 101.8606
MEAN_ANOMALY   = 258.5388

EPHEMERIS_TYPE = 0
CLASSIFICATION_TYPE = U
NORAD_CAT_ID   = 14208
ELEMENT_SET_NO = 999
REV_AT_EPOCH   = 32013
BSTAR          = .52285E-3
MEAN_MOTION_DOT = .18849E-3
MEAN_MOTION_DDOT = 0

CCSDS_OMM_VERS = 2.0
CREATION_DATE  = 
ORIGINATOR     = 

OBJECT_NAME    = COSMOS 1536
OBJECT_ID      = 1984-013A
CENTER_NAME    = EARTH
REF_FRAME      = TEME
TIME_SYSTEM    = UTC
MEAN_ELEMENT_THEORY = SGP/SGP4

EPOCH          = 2026-01-03T11:49:49.233216
MEAN_MOTION    = 15.22848466
ECCENTRICITY   = .0015108
INCLINATION    = 82.5445
RA_OF_ASC_NODE = 172.5865
ARG_OF_PERICENTER = 147.6719
MEAN_ANOMALY   = 212.5447

EPHEMERIS_TYPE = 0
CLASSIFICATION_TYPE = U
NORAD_CAT_ID   = 14699
ELEMENT_SET_NO = 999
REV_AT_EPOCH   = 26269
BSTAR          = .55437E-3
MEAN_MOTION_DOT = .13054E-3
MEAN_MOTION_DDOT = 0

CCSDS_OMM_VERS = 2.0
CREATION_DATE  = 
ORIGINATOR     = 

OBJECT_NAME    = SL-14 R/B
OBJECT_ID      = 1984-027B
CENTER_NAME    = EARTH
REF_FRAME      = TEME
TIME_SYSTEM    = UTC
MEAN_ELEMENT_THEORY = SGP/SGP4

EPOCH          = 2026-01-03T07:21:54.534816
MEAN_MOTION    = 14.85902978
ECCENTRICITY   = .0017701
INCLINATION    = 82.5429
RA_OF_ASC_NODE = 306.3318
ARG_OF_PERICENTER = 185.1714
MEAN_ANOMALY   = 174.9322

EPHEMERIS_TYPE = 0
CLASSIFICATION_TYPE = U
NORAD_CAT_ID   = 14820
ELEMENT_SET_NO = 999
REV_AT_EPOCH   = 23792
BSTAR          = .10677E-3
MEAN_MOTION_DOT = .957E-5
MEAN_MOTION_DDOT = 0

CCSDS_OMM_VERS = 2.0
CREATION_DATE  = 
ORIGINATOR     = 

OBJECT_NAME    = SL-8 R/B
OBJECT_ID      = 1985-006B
CENTER_NAME    = EARTH
REF_FRAME      = TEME
TIME_SYSTEM    = UTC
MEAN_ELEMENT_THEORY = SGP/SGP4

EPOCH          = 2026-01-03T11:16:52.683744
MEAN_MOTION    = 14.37738266
ECCENTRICITY   = .0019578
INCLINATION    = 74.0459
RA_OF_ASC_NODE = 21.1525
ARG_OF_PERICENTER = 309.3552
MEAN_ANOMALY   = 158.5943

EPHEMERIS_TYPE = 0
CLASSIFICATION_TYPE = U
NORAD_CAT_ID   = 15483
ELEMENT_SET_NO = 999
REV_AT_EPOCH   = 14465
BSTAR          = .19824E-3
MEAN_MOTION_DOT = .571E-5
MEAN_MOTION_DDOT = 0

CCSDS_OMM_VERS = 2.0
CREATION_DATE  = 
ORIGINATOR     = 

OBJECT_NAME    = SL-12 R/B(2)
OBJECT_ID      = 1985-042D
CENTER_NAME    = EARTH
REF_FRAME      = TEME
TIME_SYSTEM    = UTC
MEAN_ELEMENT_THEORY = SGP/SGP4

EPOCH          = 2026-01-03T01:42:04.846752
MEAN_MOTION    = 14.21959109
ECCENTRICITY   = .00370011
INCLINATION    = 71.1067
RA_OF_ASC_NODE = 226.3569
ARG_OF_PERICENTER = 230.0749
MEAN_ANOMALY   = 241.1939

EPHEMERIS_TYPE = 0
CLASSIFICATION_TYPE = U
NORAD_CAT_ID   = 15772
ELEMENT_SET_NO = 999
REV_AT_EPOCH   = 10506
BSTAR          = .83667761E-4
MEAN_MOTION_DOT = .138E-5
MEAN_MOTION_DDOT = 0

CCSDS_OMM_VERS = 2.0
CREATION_DATE  = 
ORIGINATOR     = 

OBJECT_NAME    = SL-14 R/B
OBJECT_ID      = 1985-069B
CENTER_NAME    = EARTH
REF_FRAME      = TEME
TIME_SYSTEM    = UTC
MEAN_ELEMENT_THEORY = SGP/SGP4

EPOCH          = 2026-01-03T12:19:28.279200
MEAN_MOTION    = 14.86354283
ECCENTRICITY   = .0019954
INCLINATION    = 82.5270
RA_OF_ASC_NODE = 86.2336
ARG_OF_PERICENTER = 51.4172
MEAN_ANOMALY   = 308.8828

EPHEMERIS_TYPE = 0
CLASSIFICATION_TYPE = U
NORAD_CAT_ID   = 15945
ELEMENT_SET_NO = 999
REV_AT_EPOCH   = 16315
BSTAR          = .10372E-3
MEAN_MOTION_DOT = .941E-5
MEAN_MOTION_DDOT = 0

CCSDS_OMM_VERS = 2.0
CREATION_DATE  = 
ORIGINATOR     = 

OBJECT_NAME    = SL-16 R/B
OBJECT_ID      = 1985-097B
CENTER_NAME    = EARTH
REF_FRAME      = TEME
TIME_SYSTEM    = UTC
MEAN_ELEMENT_THEORY = SGP/SGP4

EPOCH          = 2026-01-03T11:30:51.961248
MEAN_MOTION    = 14.16587636
ECCENTRICITY   = .0008005
INCLINATION    = 71.0031
RA_OF_ASC_NODE = 277.8357
ARG_OF_PERICENTER = 338.7117
MEAN_ANOMALY   = 194.4217

EPHEMERIS_TYPE = 0
CLASSIFICATION_TYPE = U
NORAD_CAT_ID   = 16182
ELEMENT_SET_NO = 999
REV_AT_EPOCH   = 7799
BSTAR          = .13377E-3
MEAN_MOTION_DOT = .219E-5
MEAN_MOTION_DDOT = 0

CCSDS_OMM_VERS = 2.0
CREATION_DATE  = 
ORIGINATOR     = 

OBJECT_NAME    = SL-14 R/B
OBJECT_ID      = 1986-006B
CENTER_NAME    = EARTH
REF_FRAME      = TEME
TIME_SYSTEM    = UTC
MEAN_ELEMENT_THEORY = SGP/SGP4

EPOCH          = 2026-01-03T08:56:19.843296
MEAN_MOTION    = 14.86705671
ECCENTRICITY   = .0077889
INCLINATION    = 82.5280
RA_OF_ASC_NODE = 321.1969
ARG_OF_PERICENTER = 128.4612
MEAN_ANOMALY   = 232.3629

EPHEMERIS_TYPE = 0
CLASSIFICATION_TYPE = U
NORAD_CAT_ID   = 16496
ELEMENT_SET_NO = 999
REV_AT_EPOCH   = 13950
BSTAR          = .12438E-3
MEAN_MOTION_DOT = .1196E-4
MEAN_MOTION_DDOT = 0

CCSDS_OMM_VERS = 2.0
CREATION_DATE  = 
ORIGINATOR     = 

OBJECT_NAME    = COSMOS 1743
OBJECT_ID      = 1986-034A
CENTER_NAME    = EARTH
REF_FRAME      = TEME
TIME_SYSTEM    = UTC
MEAN_ELEMENT_THEORY = SGP/SGP4

EPOCH          = 2026-01-03T10:27:37.051200
MEAN_MOTION    = 15.53630011
ECCENTRICITY   = .0005017
INCLINATION    = 82.5354
RA_OF_ASC_NODE = 142.0347
ARG_OF_PERICENTER = 167.9849
MEAN_ANOMALY   = 192.1524

EPHEMERIS_TYPE = 0
CLASSIFICATION_TYPE = U
NORAD_CAT_ID   = 16719
ELEMENT_SET_NO = 999
REV_AT_EPOCH   = 17010
BSTAR          = .77603E-3
MEAN_MOTION_DOT = .49764E-3
MEAN_MOTION_DDOT = 0

